CORVUS BC4              
1 43767U 18099K   26068.65923737  .00005714  00000+0  33980-3 0  9990
2 43767  97.4206 114.5457 0008046 356.5821   3.5354 15.11615710397368
STARLINK-3394           
1 51118U 22005Q   26068.88304626  .00000221  00000+0  32003-4 0  9990
2 51118  53.2169 288.2551 0001347  89.7180 270.3966 15.08841259228900
